H1 CPF  1  MCC 2022 12  8 15  8421 larets
H2  0304206 5557    27944 2022 12 07 23 45 00 2022 12 12 23 57 00   180 1 1  0 0 0
H9
10 0 59923 33660.000000 0     -2225907.555     -6090151.171      2784099.506
10 0 59923 33840.000000 0     -2271730.690     -5381841.819      3952595.453
10 0 59923 34020.000000 0     -2213473.896     -4477285.568      4975787.377
10 0 59923 34200.000000 0     -2048571.925     -3412239.789      5816041.075
10 0 59923 34380.000000 0     -1779383.958     -2228353.606      6442478.809
10 0 59923 34560.000000 0     -1413226.353      -971487.950      6832103.766
10 0 59923 34740.000000 0      -962182.917       310099.301      6970624.934
10 0 59923 34920.000000 0      -442702.749      1567632.147      6852960.829
10 0 59923 35100.000000 0       125006.912      2753691.106      6483420.754
10 0 59923 35280.000000 0       717773.435      3824021.815      5875553.384
10 0 59923 35460.000000 0      1310405.487      4739214.083      5051667.832
10 0 59923 35640.000000 0      1876761.119      5466194.502      4042034.912
10 0 59923 35820.000000 0      2390896.018      5979470.849      2883787.356
10 0 59923 36000.000000 0      2828243.308      6262079.607      1619548.113
10 0 59923 36180.000000 0      3166763.066      6306180.123       295822.145
10 0 59923 36360.000000 0      3387999.305      6113256.594     -1038768.172
10 0 59923 36540.000000 0      3477992.895      5693926.665     -2335323.626
10 0 59923 36720.000000 0      3428003.975      5067370.354     -3546504.278
10 0 59923 36900.000000 0      3235006.059      4260412.556     -4628279.650
10 0 59923 37080.000000 0      2901930.482      3306318.445     -5541513.271
10 0 59923 37260.000000 0      2437660.376      2243374.263     -6253328.222
10 0 59923 37440.000000 0      1856782.238      1113322.776     -6738214.848
10 0 59923 37620.000000 0      1179112.693       -40273.592     -6978858.674
10 0 59923 37800.000000 0       429022.058     -1173680.561     -6966689.042
10 0 59923 37980.000000 0      -365427.411     -2244603.414     -6702143.061
10 0 59923 38160.000000 0     -1173498.407     -3213714.124     -6194650.836
10 0 59923 38340.000000 0     -1962929.436     -4046064.148     -5462342.430
10 0 59923 38520.000000 0     -2701186.328     -4712339.921     -4531473.212
10 0 59923 38700.000000 0     -3356781.651     -5189925.129     -3435568.329
10 0 59923 38880.000000 0     -3900610.636     -5463720.334     -2214289.271
10 0 59923 39060.000000 0     -4307246.330     -5526680.239      -912048.853
10 0 59923 39240.000000 0     -4556130.547     -5380033.720       423590.360
10 0 59923 39420.000000 0     -4632592.499     -5033163.352      1743676.499
10 0 59923 39600.000000 0     -4528635.513     -4503138.291      2999713.005
10 0 59923 39780.000000 0     -4243443.638     -3813918.855      4145497.938
10 0 59923 39960.000000 0     -3783581.295     -2995276.612      5138873.767
10 0 59923 40140.000000 0     -3162873.242     -2081485.135      5943307.982
10 0 59923 40320.000000 0     -2401977.628     -1109857.032      6529242.215
10 0 59923 40500.000000 0     -1527670.981      -119191.274      6875172.250
10 0 59923 40680.000000 0      -571873.267       851801.160      6968414.416
10 0 59923 40860.000000 0       429537.102      1766021.617      6805550.393
10 0 59923 41040.000000 0      1438083.900      2589415.150      6392549.062
10 0 59923 41220.000000 0      2414184.556      3292254.758      5744555.187
10 0 59923 41400.000000 0      3318719.492      3850236.735      4885355.690
10 0 59923 41580.000000 0      4114626.097      4245349.851      3846525.433
10 0 59923 41760.000000 0      4768447.191      4466480.467      2666277.009
10 0 59923 41940.000000 0      5251773.355      4509728.946      1388040.725
10 0 59923 42120.000000 0      5542495.303      4378413.207        58828.349
10 0 59923 42300.000000 0      5625805.536      4082759.755     -1272552.282
10 0 59923 42480.000000 0      5494889.674      3639298.107     -2557346.973
10 0 59923 42660.000000 0      5151280.112      3069996.078     -3748680.475
10 0 59923 42840.000000 0      4604861.240      2401190.351     -4803279.384
10 0 59923 43020.000000 0      3873533.207      1662368.683     -5683024.216
10 0 59923 43200.000000 0      2982562.628       884869.425     -6356269.525
10 0 59923 43380.000000 0      1963660.619       100565.215     -6798903.048
10 0 59923 43560.000000 0       853834.488      -659416.361     -6995124.826
10 0 59923 43740.000000 0      -305943.760     -1365892.889     -6937947.066
10 0 59923 43920.000000 0     -1472213.815     -1992710.308     -6629408.112
10 0 59923 44100.000000 0     -2600605.519     -2517682.126     -6080509.109
10 0 59923 44280.000000 0     -3647480.031     -2923361.870     -5310869.133
10 0 59923 44460.000000 0     -4571591.716     -3197628.733     -4348103.367
10 0 59923 44640.000000 0     -5335720.308     -3334065.138     -3226916.228
10 0 59923 44820.000000 0     -5908204.973     -3332104.518     -1987921.925
10 0 59923 45000.000000 0     -6264310.867     -3196937.393      -676215.982
10 0 59923 45180.000000 0     -6387354.081     -2939171.836       660258.895
10 0 59923 45360.000000 0     -6269520.152     -2574258.130      1972492.736
10 0 59923 45540.000000 0     -5912318.010     -2121700.887      3212259.973
10 0 59923 45720.000000 0     -5326639.065     -1604098.099      4333949.436
10 0 59923 45900.000000 0     -4532416.458     -1046057.769      5296292.225
10 0 59923 46080.000000 0     -3557905.535      -473051.488      6063902.228
10 0 59923 46260.000000 0     -2438630.825        89735.995      6608582.132
10 0 59923 46440.000000 0     -1216038.502       618508.931      6910346.749
10 0 59923 46620.000000 0        64078.721      1091861.878      6958133.322
10 0 59923 46800.000000 0      1353320.415      1491647.399      6750190.324
10 0 59923 46980.000000 0      2602524.941      1803678.868      6294138.687
10 0 59923 47160.000000 0      3763662.627      2018241.904      5606704.340
10 0 59923 47340.000000 0      4791712.764      2130397.799      4713125.840
10 0 59923 47520.000000 0      5646451.234      2140070.964      3646248.815
10 0 59923 47700.000000 0      6294083.789      2051915.375      2445323.371
10 0 59923 47880.000000 0      6708634.528      1874962.199      1154539.479
10 0 59923 48060.000000 0      6873027.800      1622067.298      -178639.568
10 0 59923 48240.000000 0      6779799.342      1309186.924     -1505279.826
10 0 59923 48420.000000 0      6431400.704       954519.372     -2776827.630
10 0 59923 48600.000000 0      5840090.818       577558.453     -3946923.733
10 0 59923 48780.000000 0      5027423.502       198115.522     -4973103.349
10 0 59923 48960.000000 0      4023370.364      -164640.708     -5818307.436
10 0 59923 49140.000000 0      2865141.502      -493078.715     -6452156.859
10 0 59923 49320.000000 0      1595761.717      -771896.358     -6851964.836
10 0 59923 49500.000000 0       262465.664      -988781.649     -7003466.463
10 0 59923 49680.000000 0     -1085031.311     -1134920.519     -6901267.619
10 0 59923 49860.000000 0     -2396335.969     -1205336.940     -6549011.096
10 0 59923 50040.000000 0     -3622206.155     -1199058.156     -5959260.904
10 0 59923 50220.000000 0     -4716355.328     -1119100.863     -5153108.558
10 0 59923 50400.000000 0     -5637192.721      -972278.951     -4159500.741
10 0 59923 50580.000000 0     -6349434.751      -768836.267     -3014284.192
10 0 59923 50760.000000 0     -6825523.408      -521914.633     -1758981.102
10 0 59923 50940.000000 0     -7046779.285      -246876.338      -439320.746
10 0 59923 51120.000000 0     -7004221.648        39492.171       896429.987
10 0 59923 51300.000000 0     -6698994.558       319856.585      2199265.774
10 0 59923 51480.000000 0     -6142376.054       577242.000      3421293.654
10 0 59923 51660.000000 0     -5355356.628       795925.300      4517552.824
10 0 59923 51840.000000 0     -4367807.735       962263.609      5447712.938
10 0 59923 52020.000000 0     -3217291.852      1065414.608      6177577.178
10 0 59923 52200.000000 0     -1947576.825      1097914.039      6680340.300
10 0 59923 52380.000000 0      -606917.293      1056085.081      6937559.935
10 0 59923 52560.000000 0       753817.942       940261.942      6939808.149
10 0 59923 52740.000000 0      2083096.159       754818.539      6687000.953
10 0 59923 52920.000000 0      3330688.386       508002.620      6188402.581
10 0 59923 53100.000000 0      4449591.734       211579.539      5462302.178
10 0 59923 53280.000000 0      5397837.841      -119702.699      4535363.836
10 0 59923 53460.000000 0      6140118.178      -468807.393      3441665.289
10 0 59923 53640.000000 0      6649161.132      -817229.997      2221446.395
10 0 59923 53820.000000 0      6906788.492     -1145909.215       919603.860
10 0 59923 54000.000000 0      6904596.707     -1436183.711      -416003.293
10 0 59923 54180.000000 0      6644230.599     -1670744.318     -1736371.090
10 0 59923 54360.000000 0      6137227.160     -1834528.711     -2993204.093
10 0 59923 54540.000000 0      5404448.592     -1915512.239     -4140715.426
10 0 59923 54720.000000 0      4475147.546     -1905355.433     -5137294.141
10 0 59923 54900.000000 0      3385724.021     -1799880.701     -5946979.312
10 0 59923 55080.000000 0      2178240.612     -1599361.524     -6540690.296
10 0 59923 55260.000000 0       898775.582     -1308613.873     -6897188.783
10 0 59923 55440.000000 0      -404325.462      -936892.549     -7003761.063
10 0 59923 55620.000000 0     -1682236.801      -497599.847     -6856614.916
10 0 59923 55800.000000 0     -2887428.726        -7813.852     -6460995.740
10 0 59923 55980.000000 0     -3975384.232       512351.507     -5831019.883
10 0 59923 56160.000000 0     -4906214.162      1040536.657     -4989232.597
10 0 59923 56340.000000 0     -5646128.950      1553055.906     -3965884.890
10 0 59923 56520.000000 0     -6168712.609      2025920.759     -2797930.063
99
